{
  "links" : {
    "next" : "https://api.nasa.gov/neo/rest/v1/neo/browse?page=13&size=20&api_key=jqAGvNAwUIBu4fl9FSOjdm3V4F7hIglRzI6pdX9d",
    "prev" : "https://api.nasa.gov/neo/rest/v1/neo/browse?page=11&size=20&api_key=jqAGvNAwUIBu4fl9FSOjdm3V4F7hIglRzI6pdX9d",
    "self" : "https://api.nasa.gov/neo/rest/v1/neo/browse?page=12&size=20&api_key=jqAGvNAwUIBu4fl9FSOjdm3V4F7hIglRzI6pdX9d"
  },
  "page" : {
    "size" : 20,
    "total_elements" : 20750,
    "total_pages" : 1038,
    "number" : 12
  },
  "near_earth_objects" : [ {
    "links" : {
      "self" : "https://api.nasa.gov/neo/rest/v1/neo/3154351?api_key=jqAGvNAwUIBu4fl9FSOjdm3V4F7hIglRzI6pdX9d"
    },
    "neo_reference_id" : "3154351",
    "name" : "(2003 JG4)",
    "designation" : "2003 JG4",
    "nasa_jpl_url" : "http://ssd.jpl.nasa.gov/sbdb.cgi?sstr=3154351",
    "absolute_magnitude_h" : 22.9,
    "estimated_diameter" : {
      "kilometers" : {
        "estimated_diameter_min" : 0.0699125232,
        "estimated_diameter_max" : 0.1563291544
      },
      "meters" : {
        "estimated_diameter_min" : 69.9125232246,
        "estimated_diameter_max" : 156.3291544087
      },
      "miles" : {
        "estimated_diameter_min" : 0.0434416145,
        "estimated_diameter_max" : 0.097138403
      },
      "feet" : {
        "estimated_diameter_min" : 229.3718026961,
        "estimated_diameter_max" : 512.8909429502
      }
    },
    "is_potentially_hazardous_asteroid" : false,
    "close_approach_data" : [ {
      "close_approach_date" : "2003-04-21",
      "epoch_date_close_approach" : 1050908400000,
      "relative_velocity" : {
        "kilometers_per_second" : "2.6477955884",
        "kilometers_per_hour" : "9532.0641182676",
        "miles_per_hour" : "5922.8539517091"
      },
      "miss_distance" : {
        "astronomical" : "0.2479263791",
        "lunar" : "96.4433670044",
        "kilometers" : "37089260",
        "miles" : "23046198"
      },
      "orbiting_body" : "Earth"
    } ],
    "orbital_data" : {
      "orbit_id" : "8",
      "orbit_determination_date" : "2017-04-06 09:14:07",
      "first_observation_date" : "2003-05-03",
      "last_observation_date" : "2003-06-01",
      "data_arc_in_days" : 29,
      "observations_used" : 35,
      "orbit_uncertainty" : "8",
      "minimum_orbit_intersection" : ".247405",
      "jupiter_tisserand_invariant" : "3.461",
      "epoch_osculation" : "2452768.5",
      "eccentricity" : ".4519171012862733",
      "semi_major_axis" : "2.282414065258668",
      "inclination" : "2.184694797227889",
      "ascending_node_longitude" : "238.8726623726491",
      "orbital_period" : "1259.476531104513",
      "perihelion_distance" : "1.250952116951952",
      "perihelion_argument" : "328.5640311492936",
      "aphelion_distance" : "3.313876013565385",
      "perihelion_time" : "2452746.352413388209",
      "mean_anomaly" : "6.330511909779394",
      "mean_motion" : ".2858330354788696",
      "equinox" : "J2000",
      "orbit_class" : {
        "orbit_class_type" : "AMO",
        "orbit_class_range" : "1.017 AU < q (perihelion) < 1.3 AU",
        "orbit_class_description" : "Near-Earth asteroid orbits similar to that of 1221 Amor"
      }
    },
    "is_sentry_object" : false
  }, {
    "links" : {
      "self" : "https://api.nasa.gov/neo/rest/v1/neo/3154352?api_key=jqAGvNAwUIBu4fl9FSOjdm3V4F7hIglRzI6pdX9d"
    },
    "neo_reference_id" : "3154352",
    "name" : "(2003 JD11)",
    "designation" : "2003 JD11",
    "nasa_jpl_url" : "http://ssd.jpl.nasa.gov/sbdb.cgi?sstr=3154352",
    "absolute_magnitude_h" : 24.3,
    "estimated_diameter" : {
      "kilometers" : {
        "estimated_diameter_min" : 0.0366906138,
        "estimated_diameter_max" : 0.0820427065
      },
      "meters" : {
        "estimated_diameter_min" : 36.6906137531,
        "estimated_diameter_max" : 82.0427064882
      },
      "miles" : {
        "estimated_diameter_min" : 0.0227984834,
        "estimated_diameter_max" : 0.0509789586
      },
      "feet" : {
        "estimated_diameter_min" : 120.3760332259,
        "estimated_diameter_max" : 269.1689931548
      }
    },
    "is_potentially_hazardous_asteroid" : false,
    "close_approach_data" : [ {
      "close_approach_date" : "2003-05-10",
      "epoch_date_close_approach" : 1052550000000,
      "relative_velocity" : {
        "kilometers_per_second" : "14.693836772",
        "kilometers_per_hour" : "52897.8123791528",
        "miles_per_hour" : "32868.6434752575"
      },
      "miss_distance" : {
        "astronomical" : "0.022926869",
        "lunar" : "8.9185523987",
        "kilometers" : "3429810.75",
        "miles" : "2131185.5"
      },
      "orbiting_body" : "Earth"
    }, {
      "close_approach_date" : "2154-04-16",
      "epoch_date_close_approach" : 5815609200000,
      "relative_velocity" : {
        "kilometers_per_second" : "28.0572765016",
        "kilometers_per_hour" : "101006.1954058349",
        "miles_per_hour" : "62761.3218064756"
      },
      "miss_distance" : {
        "astronomical" : "0.456262837",
        "lunar" : "177.4862365723",
        "kilometers" : "68255944",
        "miles" : "42412280"
      },
      "orbiting_body" : "Earth"
    } ],
    "orbital_data" : {
      "orbit_id" : "12",
      "orbit_determination_date" : "2017-04-06 09:14:07",
      "first_observation_date" : "2003-05-05",
      "last_observation_date" : "2003-05-11",
      "data_arc_in_days" : 6,
      "observations_used" : 101,
      "orbit_uncertainty" : "8",
      "minimum_orbit_intersection" : ".0218261",
      "jupiter_tisserand_invariant" : "3.931",
      "epoch_osculation" : "2452766.5",
      "eccentricity" : ".5447184089180986",
      "semi_major_axis" : "1.75334773877801",
      "inclination" : "8.535351440453825",
      "ascending_node_longitude" : "220.8334206643084",
      "orbital_period" : "848.0091010985878",
      "perihelion_distance" : ".7982669482307062",
      "perihelion_argument" : "74.88529379977163",
      "aphelion_distance" : "2.708428529325313",
      "perihelion_time" : "2452815.963600083778",
      "mean_anomaly" : "339.0015272158147",
      "mean_motion" : ".4245237457164356",
      "equinox" : "J2000",
      "orbit_class" : {
        "orbit_class_type" : "APO",
        "orbit_class_range" : "a (semi-major axis) > 1.0 AU; q (perihelion) < 1.017 AU",
        "orbit_class_description" : "Near-Earth asteroid orbits which cross the Earth’s orbit similar to that of 1862 Apollo"
      }
    },
    "is_sentry_object" : false
  }, {
    "links" : {
      "self" : "https://api.nasa.gov/neo/rest/v1/neo/3154507?api_key=jqAGvNAwUIBu4fl9FSOjdm3V4F7hIglRzI6pdX9d"
    },
    "neo_reference_id" : "3154507",
    "name" : "(2003 KF4)",
    "designation" : "2003 KF4",
    "nasa_jpl_url" : "http://ssd.jpl.nasa.gov/sbdb.cgi?sstr=3154507",
    "absolute_magnitude_h" : 23.3,
    "estimated_diameter" : {
      "kilometers" : {
        "estimated_diameter_min" : 0.058150704,
        "estimated_diameter_max" : 0.130028927
      },
      "meters" : {
        "estimated_diameter_min" : 58.1507039646,
        "estimated_diameter_max" : 130.0289270043
      },
      "miles" : {
        "estimated_diameter_min" : 0.0361331611,
        "estimated_diameter_max" : 0.0807962044
      },
      "feet" : {
        "estimated_diameter_min" : 190.7831555951,
        "estimated_diameter_max" : 426.6041048727
      }
    },
    "is_potentially_hazardous_asteroid" : false,
    "close_approach_data" : [ {
      "close_approach_date" : "2003-05-26",
      "epoch_date_close_approach" : 1053932400000,
      "relative_velocity" : {
        "kilometers_per_second" : "10.3436522629",
        "kilometers_per_hour" : "37237.1481466024",
        "miles_per_hour" : "23137.7157469819"
      },
      "miss_distance" : {
        "astronomical" : "0.0205567791",
        "lunar" : "7.9965872765",
        "kilometers" : "3075250.5",
        "miles" : "1910872"
      },
      "orbiting_body" : "Earth"
    } ],
    "orbital_data" : {
      "orbit_id" : "14",
      "orbit_determination_date" : "2017-04-06 09:14:05",
      "first_observation_date" : "2003-05-25",
      "last_observation_date" : "2003-06-08",
      "data_arc_in_days" : 14,
      "observations_used" : 107,
      "orbit_uncertainty" : "7",
      "minimum_orbit_intersection" : ".0124236",
      "jupiter_tisserand_invariant" : "3.320",
      "epoch_osculation" : "2458600.5",
      "eccentricity" : ".5709638155203897",
      "semi_major_axis" : "2.33104915240696",
      "inclination" : "8.269819974188888",
      "ascending_node_longitude" : "60.79286059622777",
      "orbital_period" : "1299.946782915787",
      "perihelion_distance" : "1.000104434183112",
      "perihelion_argument" : "157.4043991354788",
      "aphelion_distance" : "3.661993870630809",
      "perihelion_time" : "2457954.569730194363",
      "mean_anomaly" : "178.880320476237",
      "mean_motion" : ".2769344135707758",
      "equinox" : "J2000",
      "orbit_class" : {
        "orbit_class_type" : "APO",
        "orbit_class_range" : "a (semi-major axis) > 1.0 AU; q (perihelion) < 1.017 AU",
        "orbit_class_description" : "Near-Earth asteroid orbits which cross the Earth’s orbit similar to that of 1862 Apollo"
      }
    },
    "is_sentry_object" : false
  } ]
}